#cP2019  7 18  0  0  0.00000000      96 ORBIT IGS14 HLM  IGS
## 2062 345600.00000000   900.00000000 58682 0.0000000000000
+   32   G01G02G03G04G05G06G07G08G09G10G11G12G13G14G15G16G17
+        G18G19G20G21G22G23G24G25G26G27G28G29G30G31G32  0  0
+          0  0  0  0  0  0  0  0  0  0  0  0  0  0  0  0  0
+          0  0  0  0  0  0  0  0  0  0  0  0  0  0  0  0  0
+          0  0  0  0  0  0  0  0  0  0  0  0  0  0  0  0  0
++         2  2  2  0  2  2  2  2  2  2  2  2  2  2  2  2  2
++         2  2  2  2  2  2  2  2  2  2  2  2  2  2  2  0  0
++         0  0  0  0  0  0  0  0  0  0  0  0  0  0  0  0  0
++         0  0  0  0  0  0  0  0  0  0  0  0  0  0  0  0  0
++         0  0  0  0  0  0  0  0  0  0  0  0  0  0  0  0  0
%c G  cc GPS ccc cccc cccc cccc cccc ccccc ccccc ccccc ccccc
%c cc cc ccc ccc cccc cccc cccc cccc ccccc ccccc ccccc ccccc
%f  1.2500000  1.025000000  0.00000000000  0.000000000000000
%f  0.0000000  0.000000000  0.00000000000  0.000000000000000
%i    0    0    0    0      0      0      0      0         0
%i    0    0    0    0      0      0      0      0         0
/* FINAL ORBIT COMBINATION FROM WEIGHTED AVERAGE OF:        
/* cod emr esa gfz grg jpl mit ngs sio                      
/* REFERENCED TO IGS TIME (IGST) AND TO WEIGHTED MEAN POLE: 
/* PCV:IGS14_2062 OL/AL:FES2004  NONE     Y  ORB:CMB CLK:CMB
*  2019  7 18 22 30  0.00000000
PG01  -2913.639493  16511.357905 -20712.903231    -71.056996  4  5  6  70       
PG02  20625.805407 -15631.406875   6226.486913   -263.158585  5  5  6  83       
PG03   7536.048545  19624.157459 -16335.221275    180.363578  7  5  3  93       
PG04 -13058.440255  13156.228604  18512.102889 999999.999999
PG05  12724.464298  -9567.446182  21160.666069     -0.006573  4  5  6  97       
PG06  24856.023726  -5227.559127  -7780.443053    145.583941  7  6  6 114       
PG07  13081.808041  10556.878177  20936.199476    -67.076689  5  4  6 103       
PG08  -5133.856884  25656.409253   3895.272846   -151.671633  3  4  4  79       
PG09   9220.592009  19469.960449  15489.430896    367.922512  6  3  5  69       
PG10 -23309.531769  -9933.787253  -8242.450337    -20.787523  6  6  5  78       
PG11  -3950.072124  22221.394820 -14740.706123   -557.795274  5  2  5  66       
PG12  -3883.147017 -19192.448367 -18236.318734    222.634710  7  4  4 111       
PG13  12812.765042 -20239.723386  11305.085870    -53.945244  4  6  4 102       
PG14 -15580.180980   6650.751478 -20083.749802    -70.849547  3  5  1  71       
PG15   2583.003889 -26020.537534   2972.332818   -299.984715  4  6  7 105       
PG16 -13417.999573   7359.901953  21573.396029    -57.331076  5  7  7 110       
PG17  14310.976671   2457.104661 -21835.206778     91.106894  8  7  7 104       
PG18 -11452.958129  18305.856626 -15886.563539     70.986238  4  6  4 138       
PG19  15564.205938  -4734.727514 -21311.176006   -292.384302  8  7  8  73       
PG20 -22685.944865 -13903.201721   1405.056798    526.062949  6  6  5  55       
PG21 -17291.014503  -6962.011332  19655.749055   -152.202898  5  6  4  93       
PG22    400.777342  17616.558026 -19669.937264   -732.803626  6  4  2  81       
PG23   1116.927267  25952.337603   4726.218311   -176.557234  6  5  5  92       
PG24   5255.910949 -18063.023805 -18778.817983    -68.945654  6  5  7 104       
PG25 -16204.326275 -19412.480661  -8744.435063     -1.838486  7 10  8 107       
PG26 -20622.801205    290.282457  16813.828005    254.551919  9  7  8  82       
PG27 -11982.721681  18244.716667  14804.798059   -188.771774  5  5  4 105       
PG28  21887.008554  12318.834207  -7876.357479    766.308004  6  5  4  96       
PG29  -5076.730628 -22331.840452  13402.407693    147.978510  6  5  5  94       
PG30  21747.426164   3301.536102  15054.135696     -1.754222  5  5  5 120       
PG31 -25469.252940   5833.309107  -5947.365354     23.423691  9  5  3  57       
PG32 -15176.983627  -1796.590822 -21658.445907      2.487812  4  5  5  73       
*  2019  7 18 22 45  0.00000000
PG01  -5006.392673  17390.993130 -19520.209591    -71.066617  3  5  6  83       
PG02  21182.878093 -15635.107053   3444.280704   -263.166661  6  6  6  92       
PG03   5839.155470  18637.115479 -18088.313113    180.361518  6  5  3  98       
PG04 -13271.679847  10894.259608  19814.617749 999999.999999
PG05  14711.060972  -8207.077328  20454.741975     -0.006669  4  5  6  86       
PG06  23999.405577  -4602.274056 -10405.143747    145.573876  7  6  6 111       
PG07  10946.515266  11585.717190  21572.974165    -67.083232  6  4  6 103       
PG08  -5332.780806  25037.211042   6695.571632   -151.673078  4  4  4  84       
PG09   8907.798457  21113.947652  13379.777426    367.914987  6  4  5  41       
PG10 -23839.384827 -10561.692115  -5539.062988    -20.799338  7  6  5  86       
PG11  -5097.705266  23215.686828 -12654.729536   -557.786506  5  2  5  67       
PG12  -2163.866921 -17946.413843 -19731.761822    222.632091  7  5  3 102       
PG13  12721.371175 -18783.993001  13658.449447    -53.943189  4  6  4 110       
PG14 -15293.963520   4247.373712 -20940.482469    -70.847892  4  6  2  86       
PG15   2968.078127 -25492.433007   5722.780923   -299.982281  4  6  7 100       
PG16 -15292.925700   5777.194736  20838.820629    -57.333993  6  8  7 111       
PG17  13964.507912   5003.132633 -21634.935563     91.113090  8  7  7  92       
PG18 -12974.920653  18910.221434 -13794.571705     70.989065  4  6  5 136       
PG19  15179.304803  -2359.741104 -21978.623129   -292.379695  9  7  9  88       
PG20 -22244.367561 -14038.570443   4168.019431    526.063049  7  5  5  50       
PG21 -15447.613124  -8106.104039  20781.379544   -152.196430  5  6  4  95       
PG22  -1687.808915  16524.871073 -20513.124430   -732.807824  5  4  2  84       
PG23    766.457295  26281.308609   1917.361747   -176.555656  6  5  5  88       
PG24   7145.595619 -18881.268254 -17246.031482    -68.946159  6  5  7 107       
PG25 -15186.718985 -18932.948234 -11289.331111     -1.840881  7 10  8 107       
PG26 -22046.993042   -846.977452  14895.658839    254.560175  9  7  8  93       
PG27 -12007.884273  16402.259415  16816.342478   -188.781529  5  6  4 103       
PG28  22385.486509  12995.401228  -5103.396208    766.308093  5  5  4  73       
PG29  -4724.674527 -23693.101111  10980.671877    147.969563  6  4  5  92       
PG30  20149.488464   4200.895258  16922.499580     -1.761059  6  5  4  94       
PG31 -24803.359608   5305.636280  -8612.112119     23.421641  9  5  3  54       
PG32 -14990.212206  -4270.857962 -21452.343674      2.501489  5  5  5  91       
*  2019  7 18 23  0  0.00000000
PG01  -6916.690873  18310.875210 -17993.832712    -71.076315  3  5  6  92       
PG02  21474.835959 -15492.228400    602.799814   -263.174513  7  6  6  98       
PG03   3937.567726  17647.810628 -19532.225134    180.359463  6  5  3  90       
PG04 -13609.051033   8520.224083  20762.746051 999999.999999
PG05  16674.535234  -6999.232974  19394.384889     -0.006896  4  5  6  96       
PG06  22926.901262  -3790.691371 -12850.753069    145.563705  7  7  6 107       
PG07   8819.412661  12750.712795  21849.298985    -67.090362  6  4  6 109       
PG08  -5562.845620  24117.555671   9379.326434   -151.673888  4  5  5  80       
PG09   8679.847988  22519.510427  11039.231476    367.907444  6  4  5  39       
PG10 -24135.513934 -11000.704507  -2741.351213    -20.811133  8  6  6  58       
PG11  -6061.789918  24064.725720 -10359.756912   -557.778233  6  3  6  67       
PG12   -254.534057 -16713.740194 -20895.198727    222.628657  6  6  4  97       
PG13  12671.639523 -17073.219980  15774.630913    -53.941615  5  6  4 107       
PG14 -15123.107602   1756.657597 -21425.130528    -70.846554  5  6  2  97       
PG15   3401.624373 -24675.108327   8371.711617   -299.980073  4  7  7  99       
PG16 -17164.811777   4365.196063  19742.648136    -57.336828  7  8  7 111       
PG17  13760.996962   7517.387180 -21048.291387     91.118967  8  7  7  93       
PG18 -14258.142750  19461.791127 -11470.540730     70.991974  4  7  5 136       
PG19  14922.458449     86.783403 -22278.541195   -292.375588  9  7  9  81       
PG20 -21529.240661 -14070.378487   6859.811380    526.063340  7  5  6  68       
PG21 -13581.074317  -9397.917284  21571.548663   -152.190095  5  6  4 103       
PG22  -3893.356006  15496.455690 -20996.698841   -732.812534  5  4  3  85       
PG23    429.010459  26305.395916   -925.207190   -176.554144  6  5  4 100       
PG24   8835.801666 -19690.388306 -15416.194991    -68.947074  7  5  7  50       
PG25 -13910.079233 -18366.947705 -13644.424165     -1.843253  7  9  8 110       
PG26 -23325.846356  -1795.744078  12722.882365    254.568413 10  8  7  92       
PG27 -12129.473764  14351.645364  18532.621862   -188.791277  6  6  4 107       
PG28  22660.918858  13448.564077  -2240.758608    766.307240  5  5  5  94       
PG29  -4472.670376 -24786.699912   8369.477168    147.960698  6  4  5  80       
PG30  18423.469166   5265.100846  18502.446743     -1.767891  7  5  3 101       
PG31 -23907.951480   4609.048079 -11132.341716     23.418992  9  5  3  70       
PG32 -14931.066329  -6705.736294 -20875.313186      2.515159  6  5  5  82       
EOF
